GSAT-8-GAGAN-PRN 127
1 37605U 11022A   23123.91854792  .00000098  00000+0  00000+0 0  9998
2 37605   0.0584  83.6393 0004250 227.8384 295.8558  1.00274026 43806
